$$SOE
2461295.500000000, A.D. 2026-Sep-12 00:00:00.0000, 4.628676394888452E+07, 4.565377780080317E+08, 1.064891083541728E+08,
2461302.500000000, A.D. 2026-Sep-19 00:00:00.0000, 3.671634695445994E+07, 4.581436859369565E+08, 1.082981144567201E+08,
2461309.500000000, A.D. 2026-Sep-26 00:00:00.0000, 2.712889766317473E+07, 4.595383493149220E+08, 1.100571654655827E+08,
2461316.500000000, A.D. 2026-Oct-03 00:00:00.0000, 1.752892134739656E+07, 4.607226127757356E+08, 1.117658063197033E+08,
2461323.500000000, A.D. 2026-Oct-10 00:00:00.0000, 7.920865908102864E+06, 4.616973916440800E+08, 1.134236080342165E+08,
2461330.500000000, A.D. 2026-Oct-17 00:00:00.0000, -1.690878190512439E+06, 4.624636695242956E+08, 1.150301670916000E+08,
2461337.500000000, A.D. 2026-Oct-24 00:00:00.0000, -1.130197792867120E+07, 4.630224958785780E+08, 1.165851048362706E+08,
2461344.500000000, A.D. 2026-Oct-31 00:00:00.0000, -2.090815758753196E+07, 4.633749835273942E+08, 1.180880668589753E+08,
2461351.500000000, A.D. 2026-Nov-07 00:00:00.0000, -3.050519812081848E+07, 4.635223061456751E+08, 1.195387223468548E+08,
2461358.500000000, A.D. 2026-Nov-14 00:00:00.0000, -4.008893584563170E+07, 4.634656966421636E+08, 1.209367634544362E+08,
2461365.500000000, A.D. 2026-Nov-21 00:00:00.0000, -4.965526226777811E+07, 4.632064471039272E+08, 1.222819049185725E+08,
2461372.500000000, A.D. 2026-Nov-28 00:00:00.0000, -5.920012604219844E+07, 4.627459072953801E+08, 1.235738837629770E+08,
2461379.500000000, A.D. 2026-Dec-05 00:00:00.0000, -6.871953345356533E+07, 4.620854810518994E+08, 1.248124587064311E+08,
2461386.500000000, A.D. 2026-Dec-12 00:00:00.0000, -7.820954725655535E+07, 4.612266236783113E+08, 1.259974095144692E+08,
2461393.500000000, A.D. 2026-Dec-19 00:00:00.0000, -8.766628576594953E+07, 4.601708403568826E+08, 1.271285364681318E+08,
2461400.500000000, A.D. 2026-Dec-26 00:00:00.0000, -9.708592234284580E+07, 4.589196846937302E+08, 1.282056598915540E+08,
2461407.500000000, A.D. 2027-Jan-02 00:00:00.0000, -1.064646850058595E+08, 4.574747572106100E+08, 1.292286196976841E+08,
2461414.500000000, A.D. 2027-Jan-09 00:00:00.0000, -1.157988560549521E+08, 4.558377038010516E+08, 1.301972749436428E+08,
2461421.500000000, A.D. 2027-Jan-16 00:00:00.0000, -1.250847716768147E+08, 4.540102141586570E+08, 1.311115033937492E+08,
2461428.500000000, A.D. 2027-Jan-23 00:00:00.0000, -1.343188214899284E+08, 4.519940201366479E+08, 1.319712010830377E+08,
2461435.500000000, A.D. 2027-Jan-30 00:00:00.0000, -1.434974478457250E+08, 4.497908939892225E+08, 1.327762818601713E+08,
2461442.500000000, A.D. 2027-Feb-06 00:00:00.0000, -1.526171444654331E+08, 4.474026468329763E+08, 1.335266768985372E+08,
2461449.500000000, A.D. 2027-Feb-13 00:00:00.0000, -1.616744548772941E+08, 4.448311285469048E+08, 1.342223343176164E+08,
2461456.500000000, A.D. 2027-Feb-20 00:00:00.0000, -1.706659730211016E+08, 4.420782283193381E+08, 1.348632190669503E+08,
2461463.500000000, A.D. 2027-Feb-27 00:00:00.0000, -1.795883446257590E+08, 4.391458726253031E+08, 1.354493126811048E+08,
2461470.500000000, A.D. 2027-Mar-06 00:00:00.0000, -1.884382663451144E+08, 4.360360225536422E+08, 1.359806127852154E+08,
2461477.500000000, A.D. 2027-Mar-13 00:00:00.0000, -1.972124842555365E+08, 4.327506725329810E+08, 1.364571326657545E+08,
2461484.500000000, A.D. 2027-Mar-20 00:00:00.0000, -2.059077928459471E+08, 4.292918496211172E+08, 1.368789009417600E+08,
2461491.500000000, A.D. 2027-Mar-27 00:00:00.0000, -2.145210342994915E+08, 4.256616128068946E+08, 1.372459612725598E+08,
2461498.500000000, A.D. 2027-Apr-03 00:00:00.0000, -2.230490978654652E+08, 4.218620522748611E+08, 1.375583720790273E+08,
2461505.500000000, A.D. 2027-Apr-10 00:00:00.0000, -2.314889192617921E+08, 4.178952886540424E+08, 1.378162062743179E+08,
2461512.500000000, A.D. 2027-Apr-17 00:00:00.0000, -2.398374800874163E+08, 4.137634722349124E+08, 1.380195510006312E+08,
2461519.500000000, A.D. 2027-Apr-24 00:00:00.0000, -2.480918071667213E+08, 4.094687820908118E+08, 1.381685073594097E+08,
2461526.500000000, A.D. 2027-May-01 00:00:00.0000, -2.562489715276116E+08, 4.050134251299957E+08, 1.382631901095239E+08,
2461533.500000000, A.D. 2027-May-08 00:00:00.0000, -2.643060867073051E+08, 4.003996358251159E+08, 1.383037273662545E+08,
2461540.500000000, A.D. 2027-May-15 00:00:00.0000, -2.722603078844886E+08, 3.956296775726981E+08, 1.382902605164683E+08,
2461547.500000000, A.D. 2027-May-22 00:00:00.0000, -2.801088334024386E+08, 3.907058430906937E+08, 1.382229442817617E+08,
2461554.500000000, A.D. 2027-May-29 00:00:00.0000, -2.878489053267287E+08, 3.856304523834922E+08, 1.381019465009552E+08,
2461561.500000000, A.D. 2027-Jun-05 00:00:00.0000, -2.954778081543119E+08, 3.804058514033995E+08, 1.379274478063415E+08,
2461568.500000000, A.D. 2027-Jun-12 00:00:00.0000, -3.029928676836473E+08, 3.750344118400046E+08, 1.376996414136797E+08,
2461575.500000000, A.D. 2027-Jun-19 00:00:00.0000, -3.103914503776265E+08, 3.695185311019772E+08, 1.374187329800998E+08,
2461582.500000000, A.D. 2027-Jun-26 00:00:00.0000, -3.176709629404191E+08, 3.638606322286863E+08, 1.370849404828607E+08,
2461589.500000000, A.D. 2027-Jul-03 00:00:00.0000, -3.248288519769437E+08, 3.580631637385931E+08, 1.366984941075557E+08,
2461596.500000000, A.D. 2027-Jul-10 00:00:00.0000, -3.318626036990631E+08, 3.521285994220060E+08, 1.362596361432635E+08,
2461603.500000000, A.D. 2027-Jul-17 00:00:00.0000, -3.387697436430341E+08, 3.460594380383813E+08, 1.357686208783606E+08,
2461610.500000000, A.D. 2027-Jul-24 00:00:00.0000, -3.455478362424731E+08, 3.398582028545191E+08, 1.352257144776987E+08,
2461617.500000000, A.D. 2027-Jul-31 00:00:00.0000, -3.521944838458007E+08, 3.335274412582601E+08, 1.346311948226980E+08,
2461624.500000000, A.D. 2027-Aug-07 00:00:00.0000, -3.587073253792343E+08, 3.270697255983521E+08, 1.339853514267498E+08,
2461631.500000000, A.D. 2027-Aug-14 00:00:00.0000, -3.650840369570550E+08, 3.204876549964425E+08, 1.332884856161751E+08,
2461638.500000000, A.D. 2027-Aug-21 00:00:00.0000, -3.713223338204535E+08, 3.137838547663126E+08, 1.325409106445895E+08,
2461645.500000000, A.D. 2027-Aug-28 00:00:00.0000, -3.774199701726474E+08, 3.069609746406062E+08, 1.317429515229814E+08,
2461652.500000000, A.D. 2027-Sep-04 00:00:00.0000, -3.833747380929457E+08, 3.000216883041558E+08, 1.308949448777989E+08,
2461659.500000000, A.D. 2027-Sep-11 00:00:00.0000, -3.891844669278231E+08, 2.929686935719214E+08, 1.299972389115257E+08,
2461666.500000000, A.D. 2027-Sep-18 00:00:00.0000, -3.948470230273763E+08, 2.858047125616463E+08, 1.290501934007843E+08,
2461673.500000000, A.D. 2027-Sep-25 00:00:00.0000, -4.003603095990544E+08, 2.785324917837404E+08, 1.280541797046016E+08,
2461680.500000000, A.D. 2027-Oct-02 00:00:00.0000, -4.057222666040305E+08, 2.711548021759253E+08, 1.270095807779065E+08,
2461687.500000000, A.D. 2027-Oct-09 00:00:00.0000, -4.109308706739538E+08, 2.636744390778932E+08, 1.259167911873482E+08,
2461694.500000000, A.D. 2027-Oct-16 00:00:00.0000, -4.159841349850047E+08, 2.560942220906122E+08, 1.247762171185927E+08,
2461701.500000000, A.D. 2027-Oct-23 00:00:00.0000, -4.208801088294359E+08, 2.484169948138560E+08, 1.235882763502209E+08,
2461708.500000000, A.D. 2027-Oct-30 00:00:00.0000, -4.256168765099969E+08, 2.406456250712917E+08, 1.223533982091992E+08,
2461715.500000000, A.D. 2027-Nov-06 00:00:00.0000, -4.301925567213448E+08, 2.327830067501104E+08, 1.210720237064747E+08,
2461722.500000000, A.D. 2027-Nov-13 00:00:00.0000, -4.346053044053731E+08, 2.248320611785649E+08, 1.197446058651932E+08,
2461729.500000000, A.D. 2027-Nov-20 00:00:00.0000, -4.388533121788244E+08, 2.167957358556861E+08, 1.183716097966226E+08,
2461736.500000000, A.D. 2027-Nov-27 00:00:00.0000, -4.429348097145424E+08, 2.086770034960844E+08, 1.169535126168845E+08,
2461743.500000000, A.D. 2027-Dec-04 00:00:00.0000, -4.468480631007784E+08, 2.004788623016651E+08, 1.154908034644503E+08,
2461750.500000000, A.D. 2027-Dec-11 00:00:00.0000, -4.505913747308677E+08, 1.922043364955804E+08, 1.139839835903259E+08,
2461757.500000000, A.D. 2027-Dec-18 00:00:00.0000, -4.541630834491771E+08, 1.838564767789277E+08, 1.124335664680102E+08,
2461764.500000000, A.D. 2027-Dec-25 00:00:00.0000, -4.575615648018269E+08, 1.754383607072355E+08, 1.108400779089288E+08,
2461771.500000000, A.D. 2028-Jan-01 00:00:00.0000, -4.607852313513606E+08, 1.669530930003124E+08, 1.092040561805607E+08,
$$EOE